CHUANGXIN 1-02 (CX-1-02)
1 33434U 08056B   26192.92428502 -.00000117  00000+0 -28225-4 0  9991
2 33434  98.6136 218.9431 0015476  69.3846 290.8994 14.30157500922155
STARS (KUKAI)           
1 33498U 09002G   26192.83580001  .00001517  00000+0  14108-3 0  9993
2 33498  98.1553 141.1543 0009918  88.2820 271.9536 14.95914852942167
KKS-1 (KISEKI)          
1 33499U 09002H   26192.88125874  .00000689  00000+0  91228-4 0  9990
2 33499  98.1178 115.7148 0007147 200.3372 159.7557 14.83184530939857
UK-DMC 2                
1 35683U 09041C   26192.90090620  .00000658  00000+0  10257-3 0  9991
2 35683  97.8858 327.2679 0001506  99.9092 260.2288 14.76092695910218
OCEANSAT-2              
1 35931U 09051A   26192.93372649 -.00000135  00000+0 -66656-4 0  9992
2 35931  98.2318 177.3146 0017127 162.9323 197.2423 13.99656511882795
SWISSCUBE               
1 35932U 09051B   26192.73013467  .00000501  00000+0  10850-3 0  9990
2 35932  98.4013 101.0441 0007681 128.3881 231.8011 14.62526839892745
BEESAT-1                
1 35933U 09051C   26192.68394636  .00000417  00000+0  93456-4 0  9995
2 35933  98.3940 100.5811 0005925 139.0777 221.0870 14.61758535892766
ITUPSAT1                
1 35935U 09051E   26192.97035851  .00000388  00000+0  90106-4 0  9996
2 35935  98.4023 100.0372 0007861 152.4089 207.7529 14.60475983892353
DMSP 5D-3 F18 (USA 210) 
1 35951U 09057A   26192.96227970  .00000171  00000+0  11156-3 0  9991
2 35951  98.9053 173.6794 0011033 174.5579 185.5716 14.14910305863099
PROBA-2                 
1 36037U 09059B   26192.44940836  .00000104  00000+0  34681-4 0  9990
2 36037  98.2457  15.4667 0012742 200.5903 159.4782 14.54872679885055
YAOGAN-7                
1 36110U 09069A   26192.66347035  .00000219  00000+0  37582-4 0  9999
2 36110  98.0040  78.3759 0023695 323.2875  36.6711 14.78033529893240
XIWANG-1 (HOPE-1)       
1 36122U 09072B   26192.94359565 -.00000366  00000+0 -84118-3 0  9999
2 36122 100.4028 146.3813 0007459 172.1200 188.0031 13.16438095796266
COSMOS 2463             
1 36519U 10017A   26192.63833098  .00000047  00000+0  35347-4 0  9999
2 36519  82.9584 231.7410 0037429  63.4683  55.1495 13.71667071811283
CARTOSAT-2B             
1 36795U 10035A   26192.97185894  .00000507  00000+0  76320-4 0  9993
2 36795  97.9947 243.3610 0012527 108.4640 251.7934 14.78615162863511
TISAT 1                 
1 36799U 10035E   26192.80356677  .00012017  00000+0  38373-3 0  9992
2 36799  98.0706 141.5552 0004240 126.9872 233.1757 15.32645486871473
YAOGAN-10               
1 36834U 10038A   26193.00036736  .00000334  00000+0  45032-4 0  9999
2 36834  97.8977 216.2064 0001612  82.9949 306.4156 14.85420880860891
SHIJIAN-6 04B (SJ-6 04B)
1 37180U 10051B   26192.98255155  .00000411  00000+0  38645-4 0  9991
2 37180  97.8744 198.6570 0007356 222.5073 137.5581 14.99383609859394
FENGYUN 3B              
1 37214U 10059A   26192.99563840  .00000146  00000+0  98652-4 0  9990
2 37214  98.9614 239.1135 0023076 115.3217   2.2999 14.14846730810938
COSMO-SKYMED 4          
1 37216U 10060A   26192.95005723  .00000966  00000+0  12791-3 0  9990
2 37216  97.8895  16.1920 0001539  84.8642 275.2746 14.82150193848238
O/OREOS (USA 219)       
1 37224U 10062C   26192.84013210  .00001220  00000+0  12067-3 0  9999
2 37224  71.9695  24.4901 0013796  11.6696 348.4791 14.93843835120324
RESOURCESAT-2           
1 37387U 11015A   26192.93415013  .00000005  00000+0  22597-4 0  9995
2 37387  98.7633 260.2036 0011401 180.2445 179.8728 14.21605363789698
YOUTHSAT                
1 37388U 11015B   26192.86044001  .00000087  00000+0  54236-4 0  9998
2 37388  98.3700 165.8042 0013161 269.9083 147.1277 14.25639764791152
APRIZESAT 6             
1 37793U 11044F   26192.73832200  .00000397  00000+0  63524-4 0  9996
2 37793  98.2343 103.7374 0043339   9.2855  45.5114 14.76953608800777
JUGNU                   
1 37839U 11058B   26192.23374851  .00000361  00000+0  48953-4 0  9990
2 37839  19.9591 162.3323 0018442 342.6467 134.7204 14.13782829762435
SRMSAT                  
1 37841U 11058D   26192.32393388  .00000351  00000+0  46525-4 0  9991
2 37841  19.9716 273.3792 0011857 108.9537 302.7584 14.11580564761239
