OBJECT_NAME,OBJECT_ID,EPOCH,MEAN_MOTION,ECCENTRICITY,INCLINATION,RA_OF_ASC_NODE,ARG_OF_PERICENTER,MEAN_ANOMALY,EPHEMERIS_TYPE,CLASSIFICATION_TYPE,NORAD_CAT_ID,ELEMENT_SET_NO,REV_AT_EPOCH,BSTAR,MEAN_MOTION_DOT,MEAN_MOTION_DDOT
CHUANGXIN 1-02 (CX-1-02),2008-056B,2026-07-11T22:10:58.225728,14.30157500,.00154765,98.6136,218.9431,69.3846,290.8994,0,U,33434,999,92215,-.28224813E-4,-.117E-5,0
STARS (KUKAI),2009-002G,2026-07-11T20:03:33.120864,14.95914852,.00099189,98.1553,141.1543,88.2820,271.9536,0,U,33498,999,94216,.1410762E-3,.1517E-4,0
KKS-1 (KISEKI),2009-002H,2026-07-11T21:09:00.755136,14.83184530,.00071479,98.1178,115.7148,200.3372,159.7557,0,U,33499,999,93985,.9122828E-4,.689E-5,0
UK-DMC 2,2009-041C,2026-07-11T21:37:18.295680,14.76092695,.00015068,97.8858,327.2679,99.9092,260.2288,0,U,35683,999,91021,.10256946E-3,.658E-5,0
OCEANSAT-2,2009-051A,2026-07-11T22:24:33.968736,13.99656511,.00171274,98.2318,177.3146,162.9323,197.2423,0,U,35931,999,88279,-.6665614E-4,-.135E-5,0
SWISSCUBE,2009-051B,2026-07-11T17:31:23.635488,14.62526839,.00076812,98.4013,101.0441,128.3881,231.8011,0,U,35932,999,89274,.10850352E-3,.501E-5,0
BEESAT-1,2009-051C,2026-07-11T16:24:52.965504,14.61758535,.00059254,98.3940,100.5811,139.0777,221.0870,0,U,35933,999,89276,.93456424E-4,.417E-5,0
ITUPSAT1,2009-051E,2026-07-11T23:17:18.975264,14.60475983,.0007861,98.4023,100.0372,152.4089,207.7529,0,U,35935,999,89235,.90105677E-4,.388E-5,0
DMSP 5D-3 F18 (USA 210),2009-057A,2026-07-11T23:05:40.966080,14.14910305,.00110338,98.9053,173.6794,174.5579,185.5716,0,U,35951,999,86309,.11155929E-3,.171E-5,0
PROBA-2,2009-059B,2026-07-11T10:47:08.882304,14.54872679,.00127423,98.2457,15.4667,200.5903,159.4782,0,U,36037,999,88505,.34680705E-4,.104E-5,0
YAOGAN-7,2009-069A,2026-07-11T15:55:23.838240,14.78033529,.00236951,98.0040,78.3759,323.2875,36.6711,0,U,36110,999,89324,.37581748E-4,.219E-5,0
XIWANG-1 (HOPE-1),2009-072B,2026-07-11T22:38:46.664160,13.16438095,.00074591,100.4028,146.3813,172.1200,188.0031,0,U,36122,999,79626,-.84118463E-3,-.366E-5,0
COSMOS 2463,2010-017A,2026-07-11T15:19:11.796672,13.71667071,.00374293,82.9584,231.7410,63.4683,55.1495,0,U,36519,999,81128,.35346891E-4,.47E-6,0
CARTOSAT-2B,2010-035A,2026-07-11T23:19:28.612416,14.78615162,.00125271,97.9947,243.3610,108.4640,251.7934,0,U,36795,999,86351,.76320107E-4,.507E-5,0
TISAT 1,2010-035E,2026-07-11T19:17:08.168928,15.32645486,.00042402,98.0706,141.5552,126.9872,233.1757,0,U,36799,999,87147,.38373371E-3,.12017E-3,0
YAOGAN-10,2010-038A,2026-07-12T00:00:31.739904,14.85420880,.0001612,97.8977,216.2064,82.9949,306.4156,0,U,36834,999,86089,.45032306E-4,.334E-5,0
SHIJIAN-6 04B (SJ-6 04B),2010-051B,2026-07-11T23:34:52.453920,14.99383609,.00073569,97.8744,198.6570,222.5073,137.5581,0,U,37180,999,85939,.38644563E-4,.411E-5,0
FENGYUN 3B,2010-059A,2026-07-11T23:53:43.157760,14.14846730,.00230767,98.9614,239.1135,115.3217,2.2999,0,U,37214,999,81093,.98652375E-4,.146E-5,0
COSMO-SKYMED 4,2010-060A,2026-07-11T22:48:04.944672,14.82150193,.0001539,97.8895,16.1920,84.8642,275.2746,0,U,37216,999,84823,.12791133E-3,.966E-5,0
O/OREOS (USA 219),2010-062C,2026-07-11T20:09:47.413440,14.93843835,.00137966,71.9695,24.4901,11.6696,348.4791,0,U,37224,999,12032,.12067044E-3,.122E-4,0
RESOURCESAT-2,2011-015A,2026-07-11T22:25:10.571232,14.21605363,.00114017,98.7633,260.2036,180.2445,179.8728,0,U,37387,999,78969,.22596533E-4,.5E-7,0
YOUTHSAT,2011-015B,2026-07-11T20:39:02.016864,14.25639764,.00131618,98.3700,165.8042,269.9083,147.1277,0,U,37388,999,79115,.54236471E-4,.87E-6,0
APRIZESAT 6,2011-044F,2026-07-11T17:43:11.020800,14.76953608,.00433395,98.2343,103.7374,9.2855,45.5114,0,U,37793,999,80077,.63523811E-4,.397E-5,0
JUGNU,2011-058B,2026-07-11T05:36:35.871264,14.13782829,.00184427,19.9591,162.3323,342.6467,134.7204,0,U,37839,999,76243,.48953406E-4,.361E-5,0
SRMSAT,2011-058D,2026-07-11T07:46:27.887232,14.11580564,.00118573,19.9716,273.3792,108.9537,302.7584,0,U,37841,999,76123,.46525383E-4,.351E-5,0
